TDRS 3                  
1 19548U 88091B   23256.15674307 -.00000299  00000+0  00000+0 0  9993
2 19548  13.3781 347.8913 0035098 329.9842  41.5954  1.00269452115261
HST                     
1 20580U 90037B   23255.83357118  .00006283  00000+0  32696-3 0  9994
2 20580  28.4697  44.5009 0001923 245.2563 233.0031 15.13999232634758
TDRS 5                  
1 21639U 91054B   23255.67225528  .00000085  00000+0  00000+0 0  9995
2 21639  14.1967   1.1704 0022899 359.7412  65.2424  1.00271391117607
TDRS 6                  
1 22314U 93003B   23255.99384184 -.00000295  00000+0  00000+0 0  9995
2 22314  14.1541   4.4519 0012208 156.0066 143.1644  1.00268234112261
TDRS 7                  
1 23613U 95035B   23255.81435905 -.00000202  00000+0  00000+0 0  9992
2 23613  13.7983 355.2013 0025995  72.4382 301.8037  1.00277129103143
ISS (ZARYA)             
1 25544U 98067A   23256.47564735  .00017502  00000+0  32245-3 0  9992
2 25544  51.6412 251.1795 0005599  15.0740 120.6088 15.49227189415481
LANDSAT 7               
1 25682U 99020A   23256.39918007  .00000760  00000+0  16666-3 0  9998
2 25682  97.9231 290.9008 0001708 100.2620 317.5593 14.60221461298651
TERRA                   
1 25994U 99068A   23256.43989762  .00000899  00000+0  19981-3 0  9993
2 25994  98.0873 322.6150 0002834 128.1867 287.7001 14.59308484262657
TDRS 8                  
1 26388U 00034A   23255.58681464  .00000086  00000+0  00000+0 0  9995
2 26388  11.0882  39.3584 0002580 215.0222 137.6114  1.00310187 85063
TIMED                   
1 26998U 01055B   23256.00829049  .00001789  00000+0  18923-3 0  9995
2 26998  74.0701  97.2143 0002123 231.1948 128.9045 14.90034651180514
TDRS 9                  
1 27389U 02011A   23256.44432889  .00000006  00000+0  00000+0 0  9997
2 27389   9.9995  56.3608 0006989  99.4716 257.3316  0.98979737 80305
AQUA                    
1 27424U 02022A   23256.46184792  .00001690  00000+0  37539-3 0  9999
2 27424  98.2923 200.6044 0000736  77.2578  33.8810 14.58309307136229
TDRS 10                 
1 27566U 02055A   23256.33377005  .00000086  00000+0  00000+0 0  9996
2 27566   9.0375  47.2445 0004147  10.7702 243.1601  1.00267869 76112
SORCE                   
1 27651U 03004A   23256.05054853  .00004842  00000+0  47490-3 0  9990
2 27651  39.9929 205.9575 0018228  62.3642 297.8996 14.92561682120660
AURA                    
1 28376U 04026A   23255.91113556  .00001514  00000+0  34154-3 0  9996
2 28376  98.2149 198.4195 0001104  88.1116 272.0209 14.57712262 19121
SWIFT                   
1 28485U 04047A   23255.96871117  .00011981  00000+0  64619-3 0  9997
2 28485  20.5576   1.8294 0008795 301.1250  58.8322 15.12182125 32066
THEMIS A                
1 30580U 07004A   23256.36752314 -.00000608  00000+0  38599-1 0  9995
2 30580  11.1008 291.0732 8324577 265.7922 272.7760  0.87833725 57109
THEMIS D                
1 30797U 07004D   23255.49479507 -.00000637  00000+0  00000+0 0  9994
2 30797   7.5752 280.2521 8287067 279.9209 343.5979  0.87834135 32206
THEMIS E                
1 30798U 07004E   23255.53499212 -.00000605  00000+0  00000+0 0  9990
2 30798   8.6962 299.5294 8290731 262.2804  14.0091  0.87831974 57042
AIM                     
1 31304U 07015A   23255.79846978  .00038537  00000+0  11801-2 0  9997
2 31304  97.8732 201.9840 0001863 178.1222 182.0027 15.33711965900093
FGRST (GLAST)           
1 33053U 08029A   23256.40391697  .00004665  00000+0  22965-3 0  9997
2 33053  25.5834 313.6717 0011597  40.1424 319.9968 15.14567149842607
WISE                    
1 36119U 09071A   23255.65907246  .00019153  00000+0  40819-3 0  9996
2 36119  97.1882 287.5134 0003850 105.3129 254.8546 15.44951914765010
TDRS 11                 
1 39070U 13004A   23255.69130917  .00000075  00000+0  00000+0 0  9990
2 39070   2.6948   1.2545 0004585  76.2334 348.6597  1.00279236 36588
TDRS 12                 
1 39504U 14004A   23256.22827313 -.00000275  00000+0  00000+0 0  9999
2 39504   3.5874 356.6358 0005493 186.5545 209.8799  1.00278338 35342
GPM-CORE                
1 39574U 14009C   23256.30408791  .00024714  00000+0  34043-3 0  9996
2 39574  64.9909  86.2535 0010050 270.0172  89.9823 15.57145819542085
MMS 1                   
1 40482U 15011A   23256.00001157 -.00002374  00000+0  00000+0 0  9993
2 40482  31.6888  45.9830 9202930 114.3905 103.6366  0.28575143 14589
MMS 2                   
1 40483U 15011B   23256.00001157 -.00002376  00000+0  00000+0 0  9996
2 40483  31.6911  45.9765 9204522 114.4057 103.6109  0.28575233 14565
MMS 3                   
1 40484U 15011C   23256.00001157 -.00002374  00000+0  00000+0 0  9995
2 40484  31.6926  45.9853 9202631 114.4014 103.5952  0.28575176 14563
MMS 4                   
1 40485U 15011D   23256.00001157 -.00002375  00000+0  00000+0 0  9997
2 40485  31.6800  45.9800 9203115 114.4040 103.6068  0.28575211 14563
TDRS 13                 
1 42915U 17047A   23255.99354906 -.00000106  00000+0  00000+0 0  9998
2 42915   3.9055 339.2486 0016619 127.9837 230.7005  1.00272283 22275
JPSS-1                  
1 43013U 17073A   23256.43965560  .00000183  00000+0  10745-3 0  9996
2 43013  98.7154 193.5130 0000850 104.1507 255.9764 14.19562720301492
